codigo_act,municipio,Nombre,encontrada,denue,ageb.x,cp,estado,localidad.x,id,clee,nom_estab,raz_social,nombre_act,per_ocu,tipo_vial,nom_vial,tipo_v_e_1,nom_v_e_1,tipo_v_e_2,nom_v_e_2,tipo_v_e_3,nom_v_e_3,numero_ext,letra_ext,edificio,edificio_e,numero_int,letra_int,tipo_asent,nomb_asent,tipoCenCom,nom_CenCom,num_local,cod_postal,cve_ent,entidad,municipio.y,cve_loc,localidad.y,ageb.y,manzana,telefono,correoelec,www,tipoUniEco,latitud,longitud,fecha_alta
311110,17,NUTRIGAFER SA DE CV,NUTRIGAFER SA DE CV,NUTRIGAFER SA DE CV,697,31520,8,1,9345358,09017311110000045000000000U1,PROVEEDORAH Y H,PROVEEDORA HYH SA DE CV,Elaboración de alimentos para animales,51 a 100 personas,EJE VIAL,1 ORIENTE CALZADA DE LA VIGA,CALLE,PROLONGACIÓN ROA BÁRCENAS,CALLE,YUNQUE,CALLE,TORNO,206,,,,,,COLONIA,ARTES GRAFICAS,,,,NA,9,CIUDAD DE MÉXICO,Venustiano Carranza,1,Venustiano Carranza,1312,1,,,WWW.PHAYH.MX,Fijo,19.41202316,-99.12755665,2021-05
311110,17,NUTRIGAFER SA DE CV,NUTRIGAFER SA DE CV,NUTRIGAFER SA DE CV,697,31520,8,1,2888354,18017311110000032001026331S8,FORRAJES Y ALIMENTOS SAN CAYETANO,FORRAJES Y ALIMENTOS SAN CAYETANO S DE RL DE CV,Elaboración de alimentos para animales,11 a 30 personas,CALLE,PLATINO,BOULEVARD,LUIS DONALDO COLOSIO,CALLE,GIRASOLES,CALLE,NARDO,19,,,,0,,OTRO (ESPECIFIQUE),CIUDAD INDUSTRIAL,,,,63195,18,NAYARIT,Tepic,1,Tepic,972,27,,FORRAJESSANCAYETANO@HOTMAIL.COM,,Fijo,21.47609727,-104.8550695,2010-07
311110,17,NUTRIGAFER SA DE CV,NUTRIGAFER SA DE CV,NUTRIGAFER SA DE CV,697,31520,8,1,6268920,18008311110000033100020734S5,FORRAJES BARAJAS,FORRAJES BARAJAS SA DE CV,Elaboración de alimentos para animales,11 a 30 personas,CARRETERA,CAMINO REFUGIO-TRIGOMIL MARGEN IZQUIERDO,OTRO (ESPECIFIQUE),SIN REFERENCIA,OTRO (ESPECIFIQUE),SIN REFERENCIA,OTRO (ESPECIFIQUE),MANZANA 800,0,SN,,,0,,NINGUNO,TRIGOMIL,,,,63791,18,NAYARIT,Tepic,413,Crucero de Trigomil,417,800,,FORRAJESBARAJAS@HOTMAIL.COM,WWW.FORRAJESBARAJAS.COM.MX,Fijo,21.41821997,-104.7852324,2014-12
311110,17,NUTRIGAFER SA DE CV,NUTRIGAFER SA DE CV,NUTRIGAFER SA DE CV,697,31520,8,1,6363514,18017311110000053001007988S4,FÁBRICA NUEVA Y CILOS,AGROPECUARIA EL AVION SPR DE RL,Elaboración de alimentos para animales,31 a 50 personas,AVENIDA,AGUAMILPA,AVENIDA,SIN REFERENCIA,OTRO (ESPECIFIQUE),AGUAMILPA,OTRO (ESPECIFIQUE),SIN REFERENCIA,375,,,,0,,COLONIA,CIUDAD INDUSTRIAL,,,,63163,18,NAYARIT,Tepic,1,Tepic,811,11,,ELAVIONALOPEZ@HOTMAIL.COM,WWW.AGROPECUARIAELAVION.COM,Fijo,21.48336524,-104.8445005,2014-12
311110,17,NUTRIGAFER SA DE CV,NUTRIGAFER SA DE CV,NUTRIGAFER SA DE CV,697,31520,8,1,6864132,18017434112000391011020734S6,FORRAJES BARAJAS,FORRAJES BARAJAS SA DE CV,Elaboración de alimentos para animales,6 a 10 personas,AVENIDA,BONATERRA,CALLE,PASEO DE LOS ROBLES,CALLE,CARRETERA TEPIC-GUADALAJARA,CALLE,LIRIO,66,,,,0,,FRACCIONAMIENTO,BONATERRA,,,,63194,18,NAYARIT,Tepic,1,Tepic,2292,1,,FORRAJESBARAJAS@HOTMAIL.COM,WWW.FORRAJESBARAJAS.COM.MX,Fijo,21.46682373,-104.8424753,2019-04
331510,104,Altzairu,ALTZAIRU,FUNDICIONES ALTZAIRU,2169,54180,15,1,6354371,15104331510000096002000000U9,INDUSTRIAS MEMPER SA DE CV,INDUSTRIAS MEMPER SA DE CV,Moldeo por fundición de piezas de hierro y acero,101 a 250 personas,AVENIDA,RÍO LERMA,CALLE,ROBERTO FULTON,CALLE,TENAYUCA,CALLE,ANTONIO M. RIVERA,169,,,,,,COLONIA,CENTRO INDUSTRIAL TLALNEPANTLA,,,,54030,15,MÉXICO                      ,Tlalnepantla de Baz,1,Tlalnepantla,1870,3,,RLEON@MEMPER.COM.MX,,Fijo,19.54734424,-99.20220899,2010-07
331510,104,Altzairu,ALTZAIRU,FUNDICIONES ALTZAIRU,2169,54180,15,1,6354716,15104331510000074001000000U6,SOCIEDAD COOPERATIVA DE PRODUCCION JACARANDAS SCL,SOCIEDAD COOPERATIVA DE PRODUCCION JACARANDAS SOCIEDADES COPERATIVAS DELIMITADAS,Moldeo por fundición de piezas de hierro y acero,51 a 100 personas,CALLE,IGNACIO LÓPEZ,CALLE,EMILIANO ZAPATA,CALLE,PÍPILA,CALLE,SEBASTIÁN LERDO DE TEJADA,7,,,,0,,COLONIA,SAN JUAN IXHUATEPEC,,,,54180,15,MÉXICO                      ,Tlalnepantla de Baz,1,Tlalnepantla,1419,46,,SOCOPROJA@PRODIGY.NET.MX,,Fijo,19.51923435,-99.10354383,2010-07
331510,104,Altzairu,ALTZAIRU,FUNDICIONES ALTZAIRU,2169,54180,15,1,6355391,15104331510000123002000000U1,CONEXIONES SANITARIAS DE INOXIDABLE,,Moldeo por fundición de piezas de hierro y acero,11 a 30 personas,AVENIDA,POPOCATÉPETL,CALLE,CERRO DE LA CARBONERA,CALLE,DIVISIÓN DEL NORTE,CALLE,DIVISIÓN DEL NORTE,7,,,,0,,COLONIA,DR JORGE JIMENEZ CANTU,,,,54190,15,MÉXICO                      ,Tlalnepantla de Baz,1,Tlalnepantla,1156,21,,CNEXIONESJOSE@HOTMAIL.COM,,Fijo,19.541508,-99.090361,2010-07
331510,104,Altzairu,ALTZAIRU,FUNDICIONES ALTZAIRU,2169,54180,15,1,6695762,15104336350000051000010142S0,DANA MÉXICO CORPORACIÓN S DE RL DE CV  DIVISIÓN AUTOMETALES,DANA DE MEXICO CORPORACION S DE RL DE CV,Moldeo por fundición de piezas de hierro y acero,101 a 250 personas,AVENIDA,AVENIDA DE LAS INDUSTRIAS,AVENIDA,LA PRESA,AVENIDA,HERMILO MENA,AVENIDA,RIO DE LOS REMEDIOS,24,,,,0,,COLONIA,SAN JUAN IXHUATEPEC,,,,54180,15,MÉXICO                      ,Tlalnepantla de Baz,1,Tlalnepantla,1387,13,,,,Fijo,19.52407995,-99.11881499,2016-01
331510,104,Altzairu,ALTZAIRU,FUNDICIONES ALTZAIRU,2169,54180,15,1,2293774,15104331510000141001000000U3,TRANSFORMA ACEROS DE MÉXICO,TRANSFORMA ACEROS DE MÉXICO ,Moldeo por fundición de piezas de hierro y acero,31 a 50 personas,PRIVADA,SAN JOSE,CALLE,SAN ÁNGEL,CALLE,SAN JOSE,CERRADA,SAN MARCOS,11,5,,,,,COLONIA,SAN ISIDRO IXHUASTEPEC,,,,54180,15,MÉXICO                      ,Tlalnepantla de Baz,1,Tlalnepantla,1387,2,,,,Fijo,19.52468854,-99.10266485,2014-12
332610,6,"Colgadores Tubulares, S.A. De C.V.",COLGADORES TUBULARES,COLGADORES TUBULARES,1094,8400,9,1,3614089,22006332610000016000000000U2,CGR DE MEXICO,CGR DE MEXICO SA DE CV,"Fabricación de alambre, productos de alambre y resortes",101 a 250 personas,CIRCUITO,NINGUNO,AVENIDA,CONSTITUYENTES,CALLE,NINGUNO,CALLE,NINGUNO,7,,,,0,,PARQUE INDUSTRIAL,INDUSTRIAL BALVANERA,OTRO CONGLOMERADO,BALVANERA,,76920,22,QUERÉTARO                               ,Corregidora,1,El Pueblito,104,44,,LUCY.REGALADO@CGRINTERNATIONAL.COM,WWW.CGR.FR,Fijo,20.53654383,-100.4553141,2014-12
332610,6,"Colgadores Tubulares, S.A. De C.V.",COLGADORES TUBULARES,COLGADORES TUBULARES,1094,8400,9,1,8735961,22006332610000032000000000U9,REJAS GAVIONES Y MALLAS DEL BAJIO,REGAMA DEL BAJIO SA DE CV,"Fabricación de alambre, productos de alambre y resortes",6 a 10 personas,CALLE,DON JOSE,CALLE,NINGUNO,CALLE,NINGUNO,CALLE,GERANIOS,28,,,,6,,PARQUE INDUSTRIAL,BALVANERA,,,,76900,22,QUERÉTARO                               ,Corregidora,1,El Pueblito,104,26,4422737119,INFORMES@REGAMABAJIO.COM.MX,WWW.REGAMABAJIO.COM.MX,Fijo,20.52853621,-100.461265,2019-11
332610,6,"Colgadores Tubulares, S.A. De C.V.",COLGADORES TUBULARES,COLGADORES TUBULARES,1094,8400,9,1,6742413,19006332610000053000000000U0,BM VELTIX MEXICO,BM VELTIX S DE RL DE CV,"Fabricación de alambre, productos de alambre y resortes",11 a 30 personas,CALLE,CARRETERA MEXICO-LAREDO,CALLE,NINGUNO,OTRO (ESPECIFIQUE),SIN REFERENCIA,CALLE,LIBRAMIENTO NORESTE,1000,KM 16.5,,,,,MANZANA,MOISES SAENZ,,,,66615,19,NUEVO LEÓN   ,Apodaca,1,Ciudad Apodaca,1204,1,,,,Fijo,25.8246541,-100.2624119,2016-10
332610,6,"Colgadores Tubulares, S.A. De C.V.",COLGADORES TUBULARES,COLGADORES TUBULARES,1094,8400,9,1,6365452,19006332610000036000000000U5,ACEROS TITAN SA DE CV,ACEROS TITAN SA DE CV,"Fabricación de alambre, productos de alambre y resortes",101 a 250 personas,CARRETERA,Libramiento Noreste,CARRETERA,ANTONIO E MARCOS,CALLE,ANDROMEDA,CALLE,Ninguno,0,kilometro 34.8,,,0,,COLONIA,COSMOPOLIS,,,,66612,19,NUEVO LEÓN   ,Apodaca,1,Ciudad Apodaca,827,12,,,,Fijo,25.83091391,-100.2509747,2010-07
332610,6,"Colgadores Tubulares, S.A. De C.V.",COLGADORES TUBULARES,COLGADORES TUBULARES,1094,8400,9,1,3808842,25006332610000053000051449M2,ACEROS CETRESA,CEMENTOS Y TREFILADOS DEL NOROESTE SA DE CV,"Fabricación de alambre, productos de alambre y resortes",11 a 30 personas,AVENIDA,MONTE TABOR,CALLE,PRIMERA,CALZADA,AEROPUERTO,CALLE,EL TIRITO,NA,SN,,,,,COLONIA,SAN JAVIER,,,,80135,25,SINALOA,Culiacán,1,Culiacán Rosales,7001,23,6677602023,CONTABILIDAD_CETRESA@HOTMAIL.COM,,Fijo,24.77450635,-107.4860586,2014-12
332610,6,"Colgadores Tubulares, S.A. De C.V.",COLGADORES TUBULARES,COLGADORES TUBULARES,1094,8400,9,1,788475,09006332610000073000000000U0,FORMAS DE ALAMBRE FAMEX,,"Fabricación de alambre, productos de alambre y resortes",6 a 10 personas,CALLE,SUR 133,CALLE,ORIENTE 100,EJE VIAL,4 SUR (PRESIDENTE PLUTARCO ELIAS CALLES),CALLE,SUR 131,2514,,,,,,COLONIA,GABRIEL RAMOS MILLAN,,,,8720,9,CIUDAD DE MÉXICO,Iztacalco,1,Iztacalco,452,7,,,,Fijo,19.39622431,-99.10082076,2010-07
332720,6,"Perfiherrajes Immsa, S.A. de C.V.",PERFIHERRAJES IMMSA,PERFIHERRAJES IMMSA,132,8400,9,1,8256970,22006332720000042000000000U5,MAQUILAS GALICIA,,"Fabricación de tornillos, tuercas, remaches y similares",6 a 10 personas,AVENIDA,CONSTITUYENTES,CALLE,CANARIOS,PROLONGACION,JOSEFA ORTIZ DE DOMINGUEZ,CALLE,GORRIONES,1455,,PASAJE Y ANDADOR COMERCIAL,PASAJE,,,COLONIA,COMINO A LOS OLVERA,PASAJE Y ANDADOR COMERCIAL,BODEGAS PANAMERICANA,7-A,76220,22,QUERÉTARO                               ,Corregidora,1,El Pueblito,157,30,,FAGALICIA@HOTMAIL.COM,,Fijo,20.54075006,-100.431873,2019-11
332720,6,"Perfiherrajes Immsa, S.A. de C.V.",PERFIHERRAJES IMMSA,PERFIHERRAJES IMMSA,132,8400,9,1,6778513,19006332720000055001000000U2,MULTI TURN PRECISION INDUSTRIES S DE RL DE CV,MULTI TURN PRECISION INDUSTRIES S DE RL DE CV,"Fabricación de tornillos, tuercas, remaches y similares",51 a 100 personas,AVENIDA,SANTO DOMINGO,AVENIDA,ACEROS,OTRO (ESPECIFIQUE),SIN REFERENCIA,AVENIDA,ACEROS,1,,,,0,,PARQUE INDUSTRIAL,INDUSTRIAL LOS PARQUES,OTRO CONGLOMERADO,PARQUE INDUSTRIAL KALOS,,66448,19,NUEVO LEÓN   ,Apodaca,1,Ciudad Apodaca,1399,20,,,,Fijo,25.75685285,-100.2480408,2017-03
332720,6,"Perfiherrajes Immsa, S.A. de C.V.",PERFIHERRAJES IMMSA,PERFIHERRAJES IMMSA,132,8400,9,1,3048195,19006332720000023002000000U0,SPIROL MÉXICO,SPIROL MEXICO SA DE CV,"Fabricación de tornillos, tuercas, remaches y similares",101 a 250 personas,CARRETERA,CARRETERA MÉXICO-LAREDO,CALLE,VÍA DE NUMANCIA,CALLE,VÍA DE NAVARRA,CARRETERA,NACIONAL MÉXICO-LAREDO,1,,,,0,,COLONIA,MOISES SAENZ,,,,66613,19,NUEVO LEÓN   ,Apodaca,1,Ciudad Apodaca,1204,1,,LAURAM2612@HOTMAIL.COM,,Fijo,25.8227083,-100.2637777,2010-07
332720,6,"Perfiherrajes Immsa, S.A. de C.V.",PERFIHERRAJES IMMSA,PERFIHERRAJES IMMSA,132,8400,9,1,7832616,09006332720000082000000000U8,FABRICA DE PIEZAS DE MAQUINARIA SERVICIOS PARA LA INDUSTRIA EMBOTELLADORA,SERVICIOS PARA LA INDUSTRIA EMBOTELLADORA SA DE CV,"Fabricación de tornillos, tuercas, remaches y similares",6 a 10 personas,CALLE,EMILIO CARRANZA,CALLE,EMILIANO ZAPATA,CALLE,ÁLVARO OBREGON,CALLE,CORREGIDORA,22,A,,,,,COLONIA,SANTA ANITA,,,,8300,9,CIUDAD DE MÉXICO,Iztacalco,1,Iztacalco,026A,2,,,,Fijo,19.39994714,-99.119715,2019-11
332720,6,"Perfiherrajes Immsa, S.A. de C.V.",PERFIHERRAJES IMMSA,PERFIHERRAJES IMMSA,132,8400,9,1,6738604,09006333610000003011000000U6,TROQUELADOS Y CLAVOS ALFA,TROQUELADOS Y CLAVOS ALFA SA DE CV,"Fabricación de tornillos, tuercas, remaches y similares",6 a 10 personas,CALLE,AÑIL,CALLE,CHICLE,CALLE,VAINILLA,CALLE,AVENA,281,,,,,,COLONIA,GRANJAS MEXICO,,,,8400,9,CIUDAD DE MÉXICO,Iztacalco,1,Iztacalco,132,11,5556576666,,,Fijo,19.40406742,-99.10736173,2016-10
332720,6,"Perfiherrajes Immsa, S.A. de C.V.",PERFIHERRAJES IMMSA,PERFIHERRAJES IMMSA,132,8400,9,1,6306864,09006332720000075001000000U2,PROTTSA SA DE CV,PROTTSA SA DE CV,"Fabricación de tornillos, tuercas, remaches y similares",51 a 100 personas,CALLE,ORIENTE 233,CALLE,SUR 2,CALLE,SUR 4,CALLE,ORIENTE 229,91,,,,0,,COLONIA,AGRICOLA ORIENTAL,,,,8500,9,CIUDAD DE MÉXICO,Iztacalco,1,Iztacalco,185,8,,CONTABILIDAD@PROTTSA.COM,,Fijo,19.40522138,-99.07641734,2010-07
434221,6,Seguridad Industrial y de Valores,SEGURIDAD INDUSTRIAL Y DE VALORES,SEGURIDAD INDUSTRIAL,4577,0,25,1,2943394,19006434221000382000026083S6,OKILA,OKILA SA DE CV,Comercio al por mayor de materiales metálicos para la construcción y la manufactura,11 a 30 personas,CALLE,ISIDORO SEPULVEDA,BOULEVARD,JULIÁN TREVIÑO ELIZONDO,AVENIDA,ISIDRO SEPÚLVEDA MARTÍNEZ,AVENIDA,ISIDRO SEPÚLVEDA MARTÍNEZ,550,,,,,,COLONIA,PARQUE INDUSTRIAL TITAN,,,,66615,19,NUEVO LEÓN   ,Apodaca,1,Ciudad Apodaca,1011,3,,JSOLORZANO@OKILA.COM.MX,WWW.OKILA.COM.MX,Fijo,25.74407175,-100.2170431,2014-12
434221,6,Seguridad Industrial y de Valores,SEGURIDAD INDUSTRIAL Y DE VALORES,SEGURIDAD INDUSTRIAL,4577,0,25,1,3603921,22006434221000092001000000U6,ACEROS CONSTITUYENTES,,Comercio al por mayor de materiales metálicos para la construcción y la manufactura,6 a 10 personas,AVENIDA,CONSTITUYENTES,CALLE,RIO TUXPAN,PRIVADA,FAMILIA ARROYO,CALLE,RIO BRAVO,63,,,,0,,COLONIA,EL POCITO,,,,76900,22,QUERÉTARO                               ,Corregidora,44,San José de los Olvera,180,3,442422130,ACEROSCONSTITUYENTES@HOTMAIL.COM,,Fijo,20.56013917,-100.4159463,2010-07
434221,6,Seguridad Industrial y de Valores,SEGURIDAD INDUSTRIAL Y DE VALORES,SEGURIDAD INDUSTRIAL,4577,0,25,1,6389624,25006434221000443000010836S8,SERDI BUENOS AIRES  (H),SERDI SA DE CV,Comercio al por mayor de materiales metálicos para la construcción y la manufactura,11 a 30 personas,BOULEVARD,MANUEL J. CLOUTHIER,AVENIDA,GENERAL PABLO MACÍAS VALENZUELA,CALLE,CONSTITUYENTE ALBERTO TERRONES BENÍTEZ,AVENIDA,CERRO OTATES,3780,,,,,,COLONIA,BUENOS AIRES,,,,80199,25,SINALOA,Culiacán,1,Culiacán Rosales,234A,34,,KARLA.SANCHEZ@SERDI.COM.MX,WWW.SERDIACEROS.COM,Fijo,24.77075361,-107.4007086,2010-07
434221,6,Seguridad Industrial y de Valores,SEGURIDAD INDUSTRIAL Y DE VALORES,SEGURIDAD INDUSTRIAL,4577,0,25,1,1884688,14006811119000172011000000M5,SERVICIOS NUÑEZ,,Comercio al por mayor de materiales metálicos para la construcción y la manufactura,6 a 10 personas,CALLE,ENRIQUE GONZALEZ MARTINEZ,PRIVADA,MARIANO AZUELA,AVENIDA,PATRIA L. ORIENTE,AVENIDA,SAN MARTÍN,8,,,,,,CIUDAD,AMECA,,,,46600,14,JALISCO,Ameca,1,Ameca,222,41,,,,Fijo,20.53499145,-104.0269638,2010-07
434221,6,Seguridad Industrial y de Valores,SEGURIDAD INDUSTRIAL Y DE VALORES,SEGURIDAD INDUSTRIAL,4577,0,25,1,3045450,19006434211000363000000000U7,BLOKASA MATERIALES,BLOKASA MATERIALES SA DE CV,Comercio al por mayor de materiales metálicos para la construcción y la manufactura,11 a 30 personas,BOULEVARD,CARLOS SALINAS DE GORTARI,CALLE,PADRE MIER,CALLE,5 DE MAYO,CALLE,IGNACIO ALDAMA,601,,,,,,COLONIA,MODERNO APODACA,,,,66600,19,NUEVO LEÓN   ,Apodaca,1,Ciudad Apodaca,102,4,8183861333,,,Fijo,25.7775496,-100.1842467,2010-07
434221,6,Seguridad Industrial y de Valores,SEGURIDAD INDUSTRIAL Y DE VALORES,SEGURIDAD INDUSTRIAL,4577,0,25,1,6368925,19006434221000443000000000U6,DISTRIBUIDORA DE LAMINAS EL TIGRE,DISTRIBUIDORA DE LAMINAS EL TIGRE SA DE CV,Comercio al por mayor de materiales metálicos para la construcción y la manufactura,11 a 30 personas,CALLE,ANTONIO GARZA VILLARREAL,AVENIDA,PROFESOR MOISÉS SÁENZ GARZA,CALLE,GENERAL IGNACIO ZARAGOZA,CALLE,MINA,113,,,,,,COLONIA,MEZQUITAL,,,,66637,19,NUEVO LEÓN   ,Apodaca,1,Ciudad Apodaca,1399,23,,GMEDINA@LAMINASELTIGRE.COM,,Fijo,25.75666691,-100.2404097,2010-07
434225,2,Electronica Saturno de Colima S.A. de C.V.,ELECTRONICA SATURNO DE COLIMA,ELECTRONICA SATURNO,746,28000,6,1,6857582,09002434225000913001000000U0,F G ELECTRICAL REPRESENTATIVES,,Comercio al por mayor de equipo y material eléctrico,6 a 10 personas,CALLE,NORTE 45,CALLE,BOULEVARD DE LOS FERROCARRILES,CALLE,BOULEVARD DE LOS FERROCARRILES,CALLE,NORTE 59,958,,,,202,,COLONIA,INDUSTRIAL VALLEJO,,,,2300,9,CIUDAD DE MÉXICO,Azcapotzalco,1,Azcapotzalco,877,20,,EDGAR.PATINO@FGELECTRICAL.COM,WWW.FGELECTRICAL,Fijo,19.49526243,-99.15925998,2019-04
434225,2,Electronica Saturno de Colima S.A. de C.V.,ELECTRONICA SATURNO DE COLIMA,ELECTRONICA SATURNO,746,28000,6,1,6258042,09002434225000382000008258S8,CONDUCTORES DEL NORTE,CONDUCTORES DEL NORTE SA DE CV,Comercio al por mayor de equipo y material eléctrico,6 a 10 personas,AVENIDA,BIÓLOGO MAXIMINO MARTÍNEZ,AVENIDA,NORTE 71,CALLE,NORTE 67,CALLE,PONIENTE 44,3413,,,,0,SN,COLONIA,SAN SALVADOR XOCHIMANCA,,,,2870,9,CIUDAD DE MÉXICO,Azcapotzalco,1,Azcapotzalco,824,5,,,,Fijo,19.46146274,-99.17496505,2010-07
434225,2,Electronica Saturno de Colima S.A. de C.V.,ELECTRONICA SATURNO DE COLIMA,ELECTRONICA SATURNO,746,28000,6,1,8699008,09002434225001042000000000U7,BODEGA DE RECOLECCION DE ENVASES PROLIEPOX,,Comercio al por mayor de equipo y material eléctrico,6 a 10 personas,CALLE,17,CALLE,28,CALLE,24,CALLE,19,57,,,,0,,COLONIA,PROHOGAR,,,,2600,9,CIUDAD DE MÉXICO,Azcapotzalco,1,Azcapotzalco,415,11,,,,Fijo,19.47404261,-99.14848025,2019-11
434225,2,Electronica Saturno de Colima S.A. de C.V.,ELECTRONICA SATURNO DE COLIMA,ELECTRONICA SATURNO,746,28000,6,1,684733,09002434225000773000000000U8,MC DISTRIBUIDORA ELECTRICA,MC DISTRIBUIDORA ELECTRICA  SA DE CV,Comercio al por mayor de equipo y material eléctrico,11 a 30 personas,CALLE,16,CALLE,13,EJE VIAL,3 Norte (Cuitláhuac),CALLE,Central Sur,168,13,,,0,,COLONIA,PRO HOGAR,,,,2600,9,CIUDAD DE MÉXICO,Azcapotzalco,1,Azcapotzalco,400,20,5553550329,,,Fijo,19.47339867,-99.15258439,2014-12
434225,2,Electronica Saturno de Colima S.A. de C.V.,ELECTRONICA SATURNO DE COLIMA,ELECTRONICA SATURNO,746,28000,6,1,6290145,04002434225000132000013157S2,PROMESSA CAMPECHE 2,PRODUCTOS MEXICANOS ELECTRICOS EN EL SURESTE SA DE CV,Comercio al por mayor de equipo y material eléctrico,6 a 10 personas,AVENIDA,PATRICIO TRUEBA DE REGIL,AVENIDA,JOSÉ LÓPEZ PORTILLO,CALLE,FLAMBOYANES,PRIVADA,PEDRO MORENO,134,,,,0,,COLONIA,SASCALUM,,,,24090,4,CAMPECHE,Campeche,1,San Francisco de Campeche,1143,30,,CONTABILIDADPROMESSA@HOTMAIL.COM,,Fijo,19.81885772,-90.53000836,2010-07
434225,2,Electronica Saturno de Colima S.A. de C.V.,ELECTRONICA SATURNO DE COLIMA,ELECTRONICA SATURNO,746,28000,6,1,7401424,09002434225001032000050057S8,STEREN,ELECTRONICA TEZOZOMOC SA DE CV,Comercio al por mayor de equipo y material eléctrico,6 a 10 personas,AVENIDA,TEZOZOMOC,AVENIDA,AQUILES SERDAN,CALLE,ACAMAPICHTLI,CALLE,HUITZILÍHUITL,121,,,,0,,COLONIA,LA PRECIOSA,,,,2460,9,CIUDAD DE MÉXICO,Azcapotzalco,1,Azcapotzalco,294,16,5517422617,TEZOZOMOC@STEREN.COM.MX,WWW.STEREN.COM.MX,Fijo,19.48934423,-99.1946797,2019-11
435311,2,Corporativo Inteltex SA De CV,CORPORATIVO INTELTEX,CORPORATIVO INTELTEX,067A,2070,9,1,87644,02002517210000382000000000U7,SATA SEGURIDAD,GRUPO SATA SA DE CV,"Comercio al por mayor de equipo de telecomunicaciones, fotografía y cinematografía",11 a 30 personas,AVENIDA,CRISTOBAL COLON,CALZADA,JUSTO SIERRA,CALLE,L,AVENIDA,FRANCISCO I. MADERO,2012,,,,,,COLONIA,NUEVA,,,,21100,2,BAJA CALIFORNIA,Mexicali,1,Mexicali,95,52,6865547511,INFO@GRUPOSATA.COM,WWW.GRUPOSATA.COM,Fijo,32.6679676,-115.4531579,2010-07
435311,2,Corporativo Inteltex SA De CV,CORPORATIVO INTELTEX,CORPORATIVO INTELTEX,067A,2070,9,1,6308452,09002435319000206010002900M9,CORPORATIVO INALARM SA DE CV,CORPORATIVO INALARM SA DE CV,"Comercio al por mayor de equipo de telecomunicaciones, fotografía y cinematografía",101 a 250 personas,CALLE,REY MAXTLA,CALLE,AMADO NERVO,CALLE,MANUEL ACUÑA,AVENIDA,FF. CC. NACIONALES DE MÉXICO,213,,,,0,SN,COLONIA,SAN FRANCISCO TETECALA,,,,2730,9,CIUDAD DE MÉXICO,Azcapotzalco,1,Azcapotzalco,1023,25,,SREYES@INALARM.MX,WWW.INALARM.MX,Fijo,19.47995833,-99.1922267,2010-07
435311,2,Corporativo Inteltex SA De CV,CORPORATIVO INTELTEX,CORPORATIVO INTELTEX,067A,2070,9,1,67865,02004517910000143011000000U4,DYNAMIC COMMUNICATIONS MEXICO,DYNAMIC COMMUNICATIONS MEXICO SA DE CV,"Comercio al por mayor de equipo de telecomunicaciones, fotografía y cinematografía",11 a 30 personas,BOULEVARD,LAZARO CARDENAS,CALLE,LAGO BANQUEO,CALLE,PASEO DE LOS LAGOS,CALLE,BANKAL,341,,,,,,COLONIA,JARDINES DEL LAGO,OTRO CONGLOMERADO,PLAZA AGUA CALIENTE,,21330,2,BAJA CALIFORNIA,Mexicali,1,Mexicali,280A,41,,CEO@GODYNACOM.COM,WWW.GODIYCOM.COM,Fijo,32.62394558,-115.4873672,2010-07
435311,2,Corporativo Inteltex SA De CV,CORPORATIVO INTELTEX,CORPORATIVO INTELTEX,067A,2070,9,1,8940633,09002435311000151000038492S4,TELCEL BERYHUERT TOWN CENTER ROSARIO,BERY HUERT SA DE CV,"Comercio al por mayor de equipo de telecomunicaciones, fotografía y cinematografía",6 a 10 personas,AVENIDA,DEL ROSARIO,CALLE,CULTURA NORTE,CALLE,OSA MAYOR,AVENIDA,RIO BLANCO,1025,,CENTRO Y PLAZA COMERCIAL,PISO 3,0,LOCAL K1 AL K11,COLONIA,EL ROSARIO,CENTRO Y PLAZA COMERCIAL,TOWN CENTER ROSARIO,K1 AL K11,2100,9,CIUDAD DE MÉXICO,Azcapotzalco,1,Azcapotzalco,928,9,,,,Fijo,19.50178988,-99.20360674,2019-11
435311,2,Corporativo Inteltex SA De CV,CORPORATIVO INTELTEX,CORPORATIVO INTELTEX,067A,2070,9,1,681663,09002435311000054002000891S0,"SISTEMAS Y SERVICIOS DE COMUNICACION, S.A. DE C.V.  AZCAPOTZALCO",SISTEMAS Y SERVICIOS DE COMUNICACION SA DE CV,"Comercio al por mayor de equipo de telecomunicaciones, fotografía y cinematografía",101 a 250 personas,CALLE,LAURO VILLAR,CALLE,EMILIO PORTES GIL,CALLE,FELIPE ÁNGELES,CALLE,5 DE MAYO,120,,,,,,COLONIA,PROVIDENCIA,,,,2440,9,CIUDAD DE MÉXICO,Azcapotzalco,1,Azcapotzalco,237,22,,AZALIA.PONCE@SYSCOM.COM.MX,,Fijo,19.49455258,-99.21078001,2014-12
435311,2,Corporativo Inteltex SA De CV,CORPORATIVO INTELTEX,CORPORATIVO INTELTEX,067A,2070,9,1,9065292,09002435311000142000000000U3,COMUNICACIONES T100,,"Comercio al por mayor de equipo de telecomunicaciones, fotografía y cinematografía",6 a 10 personas,CALLE,MALVON,CALLE,COCOTEROS,CALLE,CRUZ GALVEZ,CALLE,BOLDO,153,,,,0,,COLONIA,NUEVA SANTA MARIA,,,,2800,9,CIUDAD DE MÉXICO,Azcapotzalco,1,Azcapotzalco,074A,12,,,,Fijo,19.46776565,-99.16577013,2019-11
465311,21,Papeleria y Merceria Olivo SA de CV,PAPELERIA Y MERCERIA OLIVO,PAPELERIA Y MERCERIA,126,27550,5,1,604600,08021465311001052000000000U7,MERCERIA Y PAPELERIA LA BARATA,,Comercio al por menor de artículos de papelería,11 a 30 personas,CALLE,2 PONIENTE,AVENIDA,1 PONIENTE,AVENIDA,PARQUE,CALLE,1 PONIENTE,7,,,,,,COLONIA,CENTRO,,,,33000,8,CHIHUAHUA,Delicias,1,Delicias,609,1,,PAPELERIALABARATA@HOTMAIL.COM,,Fijo,28.19374555,-105.4735251,2010-07
465311,21,Papeleria y Merceria Olivo SA de CV,PAPELERIA Y MERCERIA OLIVO,PAPELERIA Y MERCERIA,126,27550,5,1,603728,08021323119000263000000000M0,IMPRENTA Y PAPELERIA EL VENADO,,Comercio al por menor de artículos de papelería,11 a 30 personas,CALLE,CIRCULO DE LA PLAZA CARRANZA,AVENIDA,RIO FLORIDO,AVENIDA,3 SUR,CALLE,1 SUR,207,,,,0,,COLONIA,CENTRO,,,,33000,8,CHIHUAHUA,Delicias,1,Delicias,609,32,,GRUPOVENADO@HOTMAIL.COM,,Fijo,28.19072943,-105.4733596,2010-07
465311,21,Papeleria y Merceria Olivo SA de CV,PAPELERIA Y MERCERIA OLIVO,PAPELERIA Y MERCERIA,126,27550,5,1,6294862,08021465311001042001001072S8,"GRUPO PAPELERAMA, S.A. DE C.V.",GRUPO PAPELERAMA SA DE CV,Comercio al por menor de artículos de papelería,6 a 10 personas,AVENIDA,6 ORIENTE,CALLE,6 ORIENTE,CALLE,5 ORIENTE,AVENIDA,7 ORIENTE,515,,,,,,NINGUNO,ORIENTE,,,,33000,8,CHIHUAHUA,Delicias,1,Delicias,702,20,,PAPELERAMA@YAHOO.COM,,Fijo,28.19330178,-105.4633106,2010-07
465311,21,Papeleria y Merceria Olivo SA de CV,PAPELERIA Y MERCERIA OLIVO,PAPELERIA Y MERCERIA,126,27550,5,1,3055119,19021465311001511001000000U9,PAPELERIA LA UNICA,,Comercio al por menor de artículos de papelería,6 a 10 personas,CALLE,JUAREZ,CALLEJON,ARTICULO 27,CALLE,ARTICULO 123,CALLE,SAN MIGUEL DE ALLENDE,411,,,,0,,COLONIA,ALIANZA REAL,,,,66050,19,NUEVO LEÓN   ,General Escobedo,1,Ciudad General Escobedo,1588,22,,,,Fijo,25.84414788,-100.3878132,2010-07
465311,21,Papeleria y Merceria Olivo SA de CV,PAPELERIA Y MERCERIA OLIVO,PAPELERIA Y MERCERIA,126,27550,5,1,4125839,28021465311001052001000000U3,PAPELERIA LA NUEVA ESTRELLA,,Comercio al por menor de artículos de papelería,6 a 10 personas,CALLE,JOSE MARIA MORELOS Y PAVON,CALLE,ÁLVARO OBREGON,CALLE,MAGISCATZIN,CALLE,IGNACIO ZARAGOZA,405,SN,,,,,CIUDAD,ZONA CENTRO,,,,89800,28,TAMAULIPAS,El Mante,1,Ciudad Mante,663,16,8312321288,,,Fijo,22.74045962,-98.97322838,2010-07
465311,21,Papeleria y Merceria Olivo SA de CV,PAPELERIA Y MERCERIA OLIVO,PAPELERIA Y MERCERIA,126,27550,5,1,2654909,16021465311000091001000000U6,PAPELERÍA DETALLITOS,,Comercio al por menor de artículos de papelería,6 a 10 personas,AVENIDA,NACIONAL,CALLE,LAZARO CARDENAS,CALLE,MORELOS,CALLE,CONSTITUCIÓN,2150,,,,,,BARRIO,BARRIO DE SAN BARTOLOME,,,,60240,16,MICHOACÁN DE OCAMPO       ,Charapan,1,Charapan,209,15,4511910395,,,Fijo,19.65045616,-102.2536552,2014-12
466211,50,Génesis Computadoras,GÉNESIS COMPUTADORAS,GENESIS COMPUTADORAS,4570,97203,31,1,8060444,31050466211002803000000000S3,PCH MAYOREO,PCH MAYOREO SA DE CV,"Comercio al por menor de mobiliario, equipo y accesorios de cómputo",11 a 30 personas,CALLE,17A,CALLE,14,CALLE,12,CALLE,17,NA,SN,,,,,COLONIA,ITZIMNA,,,,97100,31,YUCATÁN       ,Mérida,1,Mérida,5263,5,,,PCHMAYOREO.COM,Fijo,20.99354048,-89.60638683,2019-11
466211,50,Génesis Computadoras,GÉNESIS COMPUTADORAS,GENESIS COMPUTADORAS,4570,97203,31,1,4518980,31050466211000521001000000U3,GIGABYTE,GRUPO VEMM COMPUTO SA DE CV,"Comercio al por menor de mobiliario, equipo y accesorios de cómputo",6 a 10 personas,AVENIDA,50,CALLE,57A,CALLE,61,CALLE,48,458,,,,,,FRACCIONAMIENTO,FRANCISCO DE MONTEJO,,,,97203,31,YUCATÁN       ,Mérida,1,Mérida,2288,25,,GVEMM@PRODIGY.NET.MX,WWW.GRUPOVEMM.COM,Fijo,21.02435201,-89.64917748,2014-12
466211,50,Génesis Computadoras,GÉNESIS COMPUTADORAS,GENESIS COMPUTADORAS,4570,97203,31,1,8421619,31050466211003153000019959S2,COMERCIALIZADORA DE VALOR AGREGADO,COMERCIALIZADORA DE VALOR AGREGADO SA DE CV,"Comercio al por menor de mobiliario, equipo y accesorios de cómputo",11 a 30 personas,CALLE,50,CALLE,53,CALLE,55,CALLE,57,477,,,,0,,COLONIA,CENTRO,,,,97000,31,YUCATÁN       ,Mérida,1,Mérida,455,11,,MCANUL@GRUPOCVA.COM,WWW.GRUPOCVA.COM,Fijo,20.9706774,-89.61562417,2019-11
466211,50,Génesis Computadoras,GÉNESIS COMPUTADORAS,GENESIS COMPUTADORAS,4570,97203,31,1,7991316,31050466211002902000000000U3,COMPUTACION MID,COMPUTACION MID SC DE RL,"Comercio al por menor de mobiliario, equipo y accesorios de cómputo",6 a 10 personas,CALLE,25,CALLE,14,CALLE,10A,CALLE,23B,63,,,,,,COLONIA,FRACC VILLAS SAN JERONIMO,,,,97200,31,YUCATÁN       ,Mérida,1,Mérida,2413,25,,RECEPCION@COMPUMID.MX,WWW.LAPTOPEXPERTOS.COM,Fijo,21.00671919,-89.62511419,2019-11
466211,50,Génesis Computadoras,GÉNESIS COMPUTADORAS,GENESIS COMPUTADORAS,4570,97203,31,1,4575689,31050466211001473000000000U6,COMPUFAX,COMPUFAX SA DE CV,"Comercio al por menor de mobiliario, equipo y accesorios de cómputo",11 a 30 personas,CALLE,33B,CALLE,62A,AVENIDA,REFORMA (72),CALLE,33B,501,B,,,,,COLONIA,MARTIN ALCALA,,,,97000,31,YUCATÁN       ,Mérida,1,Mérida,224,13,9999201416,INFO@COMPUFAX.COM.MX,WWW.COMPUFAX.COM.MX,Fijo,20.98502361,-89.62486573,2010-07
468211,19,Frenos y Refacciones Vallejo,FRENOS Y REFACCIONES VALLEJO,FRENOS Y REFACCIONES,1238,31205,8,1,607311,08019468211002953001000000U8,COCHERAS ELECTRONICAS,,"Comercio al por menor de partes y refacciones nuevas para automóviles, camionetas y camiones",6 a 10 personas,AVENIDA,MIRADOR,CALLE,WASHINGTON,CALLE,NINGUNO,AVENIDA,AVENIDA DE LA CANTERA,7518,,,,,,COLONIA,CAMPESTRE WASHINTONG,,,,31215,8,CHIHUAHUA,Chihuahua,1,Chihuahua,4938,42,6144130067,RAFAELURTEAGA@HOTMAIL.COM,,Fijo,28.64633814,-106.1203552,2010-07
468211,19,Frenos y Refacciones Vallejo,FRENOS Y REFACCIONES VALLEJO,FRENOS Y REFACCIONES,1238,31205,8,1,6761069,08019468211003783001001078S8,DISTRIBUIDORA DE REFACCIONES CHAVITAR SUCURSAL SILVESTRE TERRAZAS,,"Comercio al por menor de partes y refacciones nuevas para automóviles, camionetas y camiones",11 a 30 personas,AVENIDA,SILVESTRE TERRAZAS,AVENIDA,SILVESTRE TERRAZAS,CALLE,NINGUNO,CALLE,VIALIDAD CH-P,9600,,,,,,COLONIA,PAVIS BORUNDA,,,,31416,8,CHIHUAHUA,Chihuahua,1,Chihuahua,3840,42,,MARYCAMACHO@CHAVITAR.COM.MX,WWW.CHAVITAR.COM.MX,Fijo,28.600393,-106.1040229,2016-10
468211,19,Frenos y Refacciones Vallejo,FRENOS Y REFACCIONES VALLEJO,FRENOS Y REFACCIONES,1238,31205,8,1,573277,08019468211003703000000000U6,REFACCIM,AUTOPARTES JECAVI SA DE CV,"Comercio al por menor de partes y refacciones nuevas para automóviles, camionetas y camiones",11 a 30 personas,CALLE,EMILIO CARRANZA,CALLE,13,CALLE,11,CALLE,IGNACIO RAMÍREZ,1100,,,,,,COLONIA,OBRERA,,,,31350,8,CHIHUAHUA,Chihuahua,1,Chihuahua,3554,29,6144102121,REFACCIM@HOTMAIL.COM,,Fijo,28.6350902,-106.067224,2014-12
468211,19,Frenos y Refacciones Vallejo,FRENOS Y REFACCIONES VALLEJO,FRENOS Y REFACCIONES,1238,31205,8,1,9303085,08019468211004722000000000U5,CEDIS CHIHUAUHA,CEDIS ,"Comercio al por menor de partes y refacciones nuevas para automóviles, camionetas y camiones",6 a 10 personas,CALLE,NINGUNO,CALLE,NINGUNO,AVENIDA,HOMERO,CALLE,FERROCARRIL,NA,SN,,,,,PARQUE INDUSTRIAL,COMPLEJO INDUSTRIAL CHIAHUAHUA,,,,31136,8,CHIHUAHUA,Chihuahua,1,Chihuahua,4891,22,,,,Fijo,28.71064712,-106.1030989,2020-11
468211,19,Frenos y Refacciones Vallejo,FRENOS Y REFACCIONES VALLEJO,FRENOS Y REFACCIONES,1238,31205,8,1,614230,08019468211002543001000000S7,GOVI SUSPENSION AUTOMOTRIZ,GOVI SANICOLA S DE RL DE CV,"Comercio al por menor de partes y refacciones nuevas para automóviles, camionetas y camiones",6 a 10 personas,AVENIDA,20 DE NOVIEMBRE,CALLE,19,CALLE,13,CALLE,IGNACIO RAMÍREZ,1319,SN,,,,,COLONIA,OBRERA,,,,31350,8,CHIHUAHUA,Chihuahua,1,Chihuahua,3554,17,6144162449,VTS.CHIHUZ@SUSPENCION-GROB.COM,,Fijo,28.63516582,-106.0648429,2010-07
468211,19,Frenos y Refacciones Vallejo,FRENOS Y REFACCIONES VALLEJO,FRENOS Y REFACCIONES,1238,31205,8,1,8695567,19019468211000482000000000S7,THE VAPE LORD,THE VAPE LORD ,"Comercio al por menor de partes y refacciones nuevas para automóviles, camionetas y camiones",6 a 10 personas,CALLE,RIO AMAZONAS,CALLE,RIO ROSAS,AVENIDA,MANUEL GOMEZ MORIN,CALLE,RÍO GUADALQUIVIR,409,L6,EDIFICIO SIN NOMBRE,PISO 3,,,COLONIA,DEL VALLE,EDIFICIO COMERCIAL Y DE SERVICIOS,TORRE MR 901 JULIA,L6,66220,19,NUEVO LEÓN   ,San Pedro Garza García,1,San Pedro Garza García,83,25,8127481025,INFO@THEVAPELORD.COM,WWW.THEVAPELORD.COM,Fijo,25.65846661,-100.3580901,2019-11
468411,2,SERVICIOS ESPECIALES JUAN PABLO S.A. DE C.V.,SERVICIOS ESPECIALES JUAN PABLO,SERVICIOS ESPECIALES,1020,24010,4,1,6252897,04002468411000194000000000U7,MULTISERVICIOS SAN RAFAEL,DISTRIBUIDORA DE SUMINISTROS GENERALES SA DE CV,Comercio al por menor de gasolina y diesel,31 a 50 personas,AVENIDA,PATRICIO TRUEBA DE REGIL,AVENIDA,JOSÉ LÓPEZ PORTILLO,CALLE,NINGUNO,AVENIDA,MAESTROS CAMPECHANOS,508,,,,,,COLONIA,SAN RAFAEL,,,,24090,4,CAMPECHE,Campeche,1,San Francisco de Campeche,1603,23,,DISUGESA@HOTMAIL.COM,,Fijo,19.81393726,-90.52964135,2010-07
468411,2,SERVICIOS ESPECIALES JUAN PABLO S.A. DE C.V.,SERVICIOS ESPECIALES JUAN PABLO,SERVICIOS ESPECIALES,1020,24010,4,1,76210,02002468411001662000024054S5,ESTACION DE SERVICIO 1949 1RO. DICIEMBRE,ESTACION DE SERVICIOS EL CAPITAN SA DE CV,Comercio al por menor de gasolina y diesel,6 a 10 personas,AVENIDA,VENUSTIANO CARRANZA,CALLE,RÍO,CALLE,MAYO,CALLE,EMILIANO ZAPATA,355,,,,0,,COLONIA,PRIMERO DE DICIEMBRE,,,,21260,2,BAJA CALIFORNIA,Mexicali,1,Mexicali,451A,15,,JGASTELUM@ECO.COM.MX,,Fijo,32.64429612,-115.4434998,2014-12
468411,2,SERVICIOS ESPECIALES JUAN PABLO S.A. DE C.V.,SERVICIOS ESPECIALES JUAN PABLO,SERVICIOS ESPECIALES,1020,24010,4,1,66789,02002468411000322000000000U6,SERVICIO MONTERREY,,Comercio al por menor de gasolina y diesel,11 a 30 personas,CALZADA,CUAUHTÉMOC (AVIACIÓN),CALLE,RÍO SINALOA,CALLE,RÍO FUERTE,CALLEJON,CUAUHTÉMOC,601,,,,0,,COLONIA,CUAUHTÉMOC SUR,,,,21200,2,BAJA CALIFORNIA,Mexicali,1,Mexicali,4261,30,,CONTACTO@CARGAS.MX,,Fijo,32.65818241,-115.4394138,2010-07
468411,2,SERVICIOS ESPECIALES JUAN PABLO S.A. DE C.V.,SERVICIOS ESPECIALES JUAN PABLO,SERVICIOS ESPECIALES,1020,24010,4,1,76241,02002468411001462001028164S9,ESTACION 10731 VOLUNTAD,AUTO SERVICIO CASA MAGNA SA DE CV,Comercio al por menor de gasolina y diesel,101 a 250 personas,AVENIDA,heroico colegio militar,CALLE,FUENTE DEL SOL,AVENIDA,FUENTE DE DIANA,CALLE,FUENTES DE MUSAS,2418,,,,0,,COLONIA,LOMA LINDA,,,,21323,2,BAJA CALIFORNIA,Mexicali,1,Mexicali,7001,5,,CLIMON@GRUPOECO.COM.MX,,Fijo,32.60281449,-115.5060023,2014-12
468411,2,SERVICIOS ESPECIALES JUAN PABLO S.A. DE C.V.,SERVICIOS ESPECIALES JUAN PABLO,SERVICIOS ESPECIALES,1020,24010,4,1,73198,02002468411000953000000000U8,GASOLINERA PEMEX ESTACIÓN ARGENTINA,GRUPO ANTANA SA DE CV,Comercio al por menor de gasolina y diesel,11 a 30 personas,AVENIDA,REPÚBLICA DE ARGENTINA,AVENIDA,REPÚBLICA DE BRASIL,OTRO (ESPECIFIQUE),SIN REFERENCIA,AVENIDA,REPÚBLICA DE BOLIVIA,1200,,,,0,,COLONIA,ALAMITOS,OTRO CONGLOMERADO,PEMEX,,21210,2,BAJA CALIFORNIA,Mexicali,1,Mexicali,4295,14,,ANTANAFD@HOTMAIL.COM,,Fijo,32.66912362,-115.4262452,2010-07
468411,2,SERVICIOS ESPECIALES JUAN PABLO S.A. DE C.V.,SERVICIOS ESPECIALES JUAN PABLO,SERVICIOS ESPECIALES,1020,24010,4,1,53458,02002468411000211000021098M1,GASOLINERA SERVICENTRO PEMEX,GRUPO GARCIA MONTAÑO SA DE CV,Comercio al por menor de gasolina y diesel,11 a 30 personas,BOULEVARD,ADOLFO LÓPEZ MATEOS,CALLE,SUR,CALLE,CAMELIAS,CALLE,SUR,820,,,,0,,COLONIA,BELLAVISTA,,,,21150,2,BAJA CALIFORNIA,Mexicali,1,Mexicali,273A,35,,SERVICENTRO_PMX@HOTMAIL.COM,,Fijo,32.65682821,-115.4788069,2012-06
532282,5,Servicios Caballero Sa De Cv,SERVICIOS CABALLERO,SERVICIOS CABALLERO,2470,7900,9,1,6452211,23005314120000121011000000U3,HARMONY SERVICIOS PARA ENENTOS,MANTELES FINOS SA DE CV,"Alquiler de mesas, sillas, vajillas y similares",6 a 10 personas,BOULEVARD,LUIS DONALDO COLOSIO,CALLE,NINGUNO,CALLE,LUIS ECHEVERRIA ÁLVAREZ,CALLE,LUIS ECHEVERRÍA ÁLVAREZ,0,SN,,,,SN,EJIDO,ALFREDO V BONFIL,,,,77560,23,QUINTANA ROO,Benito Juárez,2,Alfredo V. Bonfil,3093,1,9983671832,VENTA.SHARMONY1@ROYALTABLETCANCUN.COM,WWW.ROYALTABLET,Fijo,21.09047558,-86.84241005,2010-07
532282,5,Servicios Caballero Sa De Cv,SERVICIOS CABALLERO,SERVICIOS CABALLERO,2470,7900,9,1,1079186,10005532291000202000000000U1,CONCEPTOS SOCIALES RAFAEL,,"Alquiler de mesas, sillas, vajillas y similares",11 a 30 personas,CALLE,AQUILES SERDAN,CALLE,RAMIREZ,CALLE,CASTAÑEDA,CALLE,NEGRETE,236,,,,0,,COLONIA,ZONA CENTRO,,,,34000,10,DURANGO,Durango,1,Victoria de Durango,265,5,6188129199,CONCEPTOSRAFAELL@HOTMAIL.COM,WWW.CONCEPTOSSOCIALESRAFAEL.COM,Fijo,24.02788878,-104.6634333,2010-07
532282,5,Servicios Caballero Sa De Cv,SERVICIOS CABALLERO,SERVICIOS CABALLERO,2470,7900,9,1,1110828,10005532291000091001000000U8,PAYAKOS,,"Alquiler de mesas, sillas, vajillas y similares",6 a 10 personas,BOULEVARD,JOSE MARIA PATONI,CALLE,AGUSTIN DE ITURBIDE,CALLE,OBRADORES,BOULEVARD,JOSÉ MARÍA PATONI,137,SN,,,0,,COLONIA,CALLE,,,,34206,10,DURANGO,Durango,1,Victoria de Durango,3575,23,6181294866,SONIDOPAYAKOS@GMAIL.COM,,Fijo,24.05721087,-104.6382139,2010-07
532282,5,Servicios Caballero Sa De Cv,SERVICIOS CABALLERO,SERVICIOS CABALLERO,2470,7900,9,1,1079578,10005532291000233001000000U6,EVENTOS VALVA,,"Alquiler de mesas, sillas, vajillas y similares",51 a 100 personas,CALLE,LAUREANO RONCAL,PRIVADA,FATIMA,CALLE,ELORREAGA,CALLE,GENERAL BLAS CORRAL,NA,SN,,,,,COLONIA,LA HUERTA,,,,34000,10,DURANGO,Durango,1,Victoria de Durango,180,25,,,WWW.EVENTOSVALVA.COM.MX,Fijo,24.03388118,-104.659586,2010-07
532411,13,"CUMHISA, SA DE CV",CUMHISA SA DE CV,CUMHISA SA DE CV,1450,52920,15,1,8347404,15013532411000142000000000U2,CIMPROTEK S.A DE C.V,CIMPROTEK SA DE CV,"Alquiler de maquinaria y equipo para construcción, minería y actividades forestales",6 a 10 personas,AVENIDA,PIONEROS DEL COOPERATIVISMO,CALLE,NINGUNO,CALLE,ESTADO DE MEXICO,CALLE,NINGUNO,205,,,,,,COLONIA,AYUNTAMIENTO DE ZARAGOZA,,,,52966,15,MÉXICO                      ,Atizapán de Zaragoza,1,Ciudad López Mateos,170,56,,,,Fijo,19.5592459,-99.2601957,2019-11
532411,13,"CUMHISA, SA DE CV",CUMHISA SA DE CV,CUMHISA SA DE CV,1450,52920,15,1,2225126,15013532411000095001000000U2,AUTOTRANSPOTES ALEMAN ESTRELLA SA DE CV,,"Alquiler de maquinaria y equipo para construcción, minería y actividades forestales",11 a 30 personas,CALLE,AVENIDA MALINCHE,CALLE,AVENIDA ATLETAS,CALLE,TLALOC,CALLE,XOCHIPIL,NA,SN,,,,,COLONIA,LAS PEÑITAS,,,,52920,15,MÉXICO                      ,Atizapán de Zaragoza,1,Ciudad López Mateos,344,10,,,,Fijo,19.58325763,-99.21682596,2014-12
532411,13,"CUMHISA, SA DE CV",CUMHISA SA DE CV,CUMHISA SA DE CV,1450,52920,15,1,2225125,15013532411000103001000000U4,LUCOBA   S.A DE C.V,,"Alquiler de maquinaria y equipo para construcción, minería y actividades forestales",6 a 10 personas,CALLE,AVENIDA MALINCHE,CALLE,AVENIDA ATLETAS,CALLE,TLALOC,CALLE,XOCHIPIL,29,,,,,,COLONIA,CERRO GRANDE,,,,52920,15,MÉXICO                      ,Atizapán de Zaragoza,1,Ciudad López Mateos,344,10,5553052600,,,Semifijo,19.58325763,-99.21682596,2014-12
541310,15,Muzquiz y Asociados S.A. de C.V.,MUZQUIZ Y ASOCIADOS,MUZQUIZ Y ASOCIADOS,1341,6100,9,1,9120936,09015541310002752000000000U2,ATELIER MUMMENTTHEY,ATELLIER MUMMENTTHEY SA DE CV,Servicios de arquitectura,6 a 10 personas,CALLE,GUILLERMO PRIETO,CALLE,VELAZQUEZ DE LEON,CALLE,MANUEL MARIA CONTRERAS,CALLE,FRANCISCO DÍAZ COVARRUBIAS,92,2,,,,,COLONIA,SAN RAFAEL,,,,6470,9,CIUDAD DE MÉXICO,Cuauhtémoc,1,Cuauhtémoc,678,11,,,WWW.ANTH.MX,Fijo,19.4380467,-99.16557647,2019-11
541310,15,Muzquiz y Asociados S.A. de C.V.,MUZQUIZ Y ASOCIADOS,MUZQUIZ Y ASOCIADOS,1341,6100,9,1,8327146,09015541310002493000000000U3,DESPACHO DE ARQUITECTOS,SALLA + ARQUITECTOS SC,Servicios de arquitectura,11 a 30 personas,CALLE,TEOTIHUACAN,AVENIDA,AMSTERDAM,AVENIDA,MEXICO,AVENIDA,SONORA,19,,,,,,COLONIA,HIPODROMO CONDESA,,,,6100,9,CIUDAD DE MÉXICO,Cuauhtémoc,1,Cuauhtémoc,120A,11,,SALLA@PRODIGY.NET.MX,,Fijo,19.41197531,-99.16805478,2019-11
541310,15,Muzquiz y Asociados S.A. de C.V.,MUZQUIZ Y ASOCIADOS,MUZQUIZ Y ASOCIADOS,1341,6100,9,1,8327714,09015541310002603000000000U7,EJECUTIVOS EN PERSONAL ESPECIALIZADOS,EJECUTIVOS EN PERSONAL ESPECIALIZADOS SA DE CV,Servicios de arquitectura,11 a 30 personas,CALLE,CHIAPAS,CALLE,ORIZABA,CALLE,CORDOBA,CALLE,COAHUILA,72,,,,,,COLONIA,ROMA NORTE,,,,6700,9,CIUDAD DE MÉXICO,Cuauhtémoc,1,Cuauhtémoc,1110,22,,,,Fijo,19.41309829,-99.1583844,2019-11
541310,15,Muzquiz y Asociados S.A. de C.V.,MUZQUIZ Y ASOCIADOS,MUZQUIZ Y ASOCIADOS,1341,6100,9,1,867021,09015541310001484001000000U3,TEN ARQUITECTOS,,Servicios de arquitectura,11 a 30 personas,CALLE,CUERNAVACA,CALLE,VICENTE SUAREZ,AVENIDA,MICHOACAN,CALLE,CUERNAVACA,114,PB,,,,,COLONIA,CONDESA,,,,6140,9,CIUDAD DE MÉXICO,Cuauhtémoc,1,Cuauhtémoc,1318,1,,,,Fijo,19.41195852,-99.17646184,2010-07
541310,15,Muzquiz y Asociados S.A. de C.V.,MUZQUIZ Y ASOCIADOS,MUZQUIZ Y ASOCIADOS,1341,6100,9,1,8625648,09015541340000553000000000S3,TALLER DE ARQUITECTURA CENTRO DE COLABORACION ARQUITECTONICA,TALLER DE ARQUITECTURA CCA SC,Servicios de arquitectura,11 a 30 personas,CALLE,LIVERPOOL,CALLE,NAPOLES,CALLE,HAVRE,CALLE,MARSELLA,76,,,,,,COLONIA,JUAREZ,,,,6600,9,CIUDAD DE MÉXICO,Cuauhtémoc,1,Cuauhtémoc,841,5,,CONTACTO@CCA.MX,WWW.CCA.MX,Fijo,19.42585485,-99.16045675,2019-11
541310,15,Muzquiz y Asociados S.A. de C.V.,MUZQUIZ Y ASOCIADOS,MUZQUIZ Y ASOCIADOS,1341,6100,9,1,896098,09015541310002101001000000U2,DESPACHO DE ARQUITECTOS DF ARQUITECTOS,DF ARQUITECTOS SA DE CV,Servicios de arquitectura,6 a 10 personas,CALLE,PUEBLA,EJE VIAL,3 PONIENTE (SALAMANCA),CALLE,COZUMEL,CALLE,SINALOA,308,,,,403,,COLONIA,ROMA NORTE,,,,6700,9,CIUDAD DE MÉXICO,Cuauhtémoc,1,Cuauhtémoc,998,17,,,WWW.DFARQUITECTOS.COM,Fijo,19.42080799,-99.17043161,2014-12
561720,30,Tu casa limpia,TU CASA LIMPIA,GARCA TU CASA LIMPIA,191A,83180,26,1,3866920,26030524210000562001000000U8,SERVICIOS MULTIPLES INDUSTRIALES,SERVICIOS MULTIPLES INDUSTRIALES SA DE CV,Servicios de limpieza de inmuebles,6 a 10 personas,CALLEJON,M. B.,OTRO (ESPECIFIQUE),SIN REFERENCIA,CARRETERA,CARRETERA A LA COLORADA,CALLE,NINGUNO,NA,SN,,,,,PARQUE INDUSTRIAL,PARQUE INDUSTRIAL HERMOSILLO,,,,83297,26,SONORA,Hermosillo,1,Hermosillo,2852,22,,,,Fijo,29.01950768,-110.9251981,2010-07
561720,30,Tu casa limpia,TU CASA LIMPIA,GARCA TU CASA LIMPIA,191A,83180,26,1,8630900,05030561720000222000000000U6,ECOLIM EL REY OFICINA DE LLIMPIEZA INDUSTRIAL,,Servicios de limpieza de inmuebles,6 a 10 personas,CALLE,APOLONIO AVILES,CALLE,SEVERIANO CALDERON,BOULEVARD,ISIDRO LOPEZ ZERTUCHE,CALLE,LEOPOLDO VILLARREAL,895,3,,,,,COLONIA,COL. LOS MAESTROS,,,,25260,5,COAHUILA DE ZARAGOZA,Saltillo,1,Saltillo,55,28,,,,Fijo,25.44788613,-100.9983559,2019-11
561720,30,Tu casa limpia,TU CASA LIMPIA,GARCA TU CASA LIMPIA,191A,83180,26,1,7683028,05030561720000295000000000S2,ARAMARK SERVICIOS INDUSTRIALES DE MEXICO,ARAMARK SERVICIOS INDUSTRIALES DE MEXICO S DE RL DE CV,Servicios de limpieza de inmuebles,51 a 100 personas,CALLE,5,CALLE,12,CALLE,18,CALLE,3,300,,,,1,,FRACCIONAMIENTO,MIGUEL HIDALGO,,,,25096,5,COAHUILA DE ZARAGOZA,Saltillo,1,Saltillo,287A,15,,,,Fijo,25.39149122,-100.9875631,2019-11
561720,30,Tu casa limpia,TU CASA LIMPIA,GARCA TU CASA LIMPIA,191A,83180,26,1,7435603,05030561720000242000000000U4,ACT,ACT SERVICIOS Y SOLUCIONES SA DE CV,Servicios de limpieza de inmuebles,6 a 10 personas,CALLE,8 DE MAYO,CALLE,2 DE ABRIL,CALLE,26 DE MARZO,CALLE,10 DE MAYO,1081,,,,,,COLONIA,PROVIVIENDA,,,,25020,5,COAHUILA DE ZARAGOZA,Saltillo,1,Saltillo,214,33,,INFO@ATCSERVICIOS.COM.MX,WWW.ATCSERVICIOS.COM.MX,Fijo,25.42103568,-100.974213,2019-11
561720,30,Tu casa limpia,TU CASA LIMPIA,GARCA TU CASA LIMPIA,191A,83180,26,1,8219200,05030561720000253000000000U1,GREEN SOLUTIONS INDUSTRIAS,GREEN SOLUTIONS INDUSTRIAL S DE RL DE CV,Servicios de limpieza de inmuebles,11 a 30 personas,CALLE,JOSE MARIA LAFRAGUA,CALLE,GENERAL RAMON CORONA,CALLE,GENERAL EULALIO GUTIERREZ,CALLE,GENERAL IGNACIO DE LA LLAVE,863,,,,0,,COLONIA,SONA CENTRO,,,,25000,5,COAHUILA DE ZARAGOZA,Saltillo,1,Saltillo,197,18,8446226244,FLOLUISA@HOTMAIL.COM,,Fijo,25.42270966,-100.9863524,2019-11
561720,30,Tu casa limpia,TU CASA LIMPIA,GARCA TU CASA LIMPIA,191A,83180,26,1,3911087,26030561320000112010000000U3,SINERTECNIA,SINERTECNIA SA DE CV,Servicios de limpieza de inmuebles,6 a 10 personas,CALLE,PASEO RIO SONORA NORTE,CALLE,CALLE DE LA REFORMA,CALLE,HERMENEGILDO GALEANA,BOULEVARD,FRANCISCO SERNA,76,,CENTRO Y PLAZA COMERCIAL,PISO 2,303,,COLONIA,HERMOSILLO XXI,CENTRO Y PLAZA COMERCIAL,LA GRAN PLAZA,303,83270,26,SONORA,Hermosillo,1,Hermosillo,3051,58,,,,Fijo,29.06909989,-110.9619576,2014-12
713291,19,Servicios Multiples del Norte S.A. de C.V.,SERVICIOS MULTIPLES DEL NORTE,SERVICIOS MULTIPLES,3395,31350,8,1,6292777,08019713291000424002008378S7,SORTEOS TEC,ENSEÑANZA E INVESTIGACION SUPERIOR AC,"Venta de billetes de lotería, pronósticos deportivos y otros boletos de sorteo",31 a 50 personas,AVENIDA,HERÓICO COLEGIO MILITAR,AVENIDA,SAN VICENTE,AVENIDA,EL ÁNGEL,CALLE,GENERAL PEDRO MARÍA ANAYA,4905,,,,,,COLONIA,COLONIA NOMBRE DE DIOS,,,,31300,8,CHIHUAHUA,Chihuahua,1,Chihuahua,518A,9,,,WWW.SORTEOSTEC.ORG,Fijo,28.67482694,-106.0793816,2010-07
811312,61,Ingeniería Mecánica de Puebla.,INGENIERIA MECANICA DE PUEBLA,INGENIERIA MECANICA,427,0,13,2,7185799,13061811312000112000000000U8,RECTIFICACION DE MOTORES TEPEALCO,,Reparación y mantenimiento de maquinaria y equipo industrial,6 a 10 personas,AVENIDA,VICENTE GUERRERO,CALLE,CEDROS,CALLE,TIXTLA,AVENIDA,PIRULES,0,SN,,,0,,COLONIA,MIGUEL HIDALGO,,,,43998,13,HIDALGO,Tepeapulco,2,Fray Bernardino de Sahagún (Ciudad Sahagún),484,27,,,,Fijo,19.7818725,-98.5762928,2019-11
811312,61,Ingeniería Mecánica de Puebla.,INGENIERIA MECANICA DE PUEBLA,INGENIERIA MECANICA,427,0,13,2,1580269,13061811312000072000000000U4,OML MANTENIMIENTO INDUSTRIAL,,Reparación y mantenimiento de maquinaria y equipo industrial,6 a 10 personas,CALLE,NOPALA,AVENIDA,ISABEL LUGO DE R GOMEZ,CALLE,SAN PEDRO HUAQUILPAN,CALLE,ALFAJAYUCAN,NA,SN,,,,,COLONIA,ROJO GOMEZ,,,,43966,13,HIDALGO,Tepeapulco,2,Fray Bernardino de Sahagún (Ciudad Sahagún),427,14,7757849182,VIRGILIOP@PRODIGY.NET.MX,,Fijo,19.77551207,-98.56852712,2014-12
811312,61,Ingeniería Mecánica de Puebla.,INGENIERIA MECANICA DE PUEBLA,INGENIERIA MECANICA,427,0,13,2,2576456,16061811499000021011000000U3,AFILADORA DE SIERRAS SIN NOMBRE,,Reparación y mantenimiento de maquinaria y equipo industrial,6 a 10 personas,PRIVADA,PRIVADA AQUILES SERDAN,PRIVADA,PRIVADA AQUILES SERDAN,PRIVADA,AQUILES SERDAN,CALLE,LEONA VICARIO,NA,SN,,,,,COLONIA,LA MORA,,,,61450,16,MICHOACÁN DE OCAMPO       ,Ocampo,1,Ocampo,64,16,7151510096,,,Fijo,19.58072801,-100.3408246,2010-07
